{
    "links": {
        "self": "http://www.neowsapp.com/rest/v1/neo/3830860?api_key=iIulBulltgU6a56xZRHN4H3l9WmuAYTsLGpBGhQ2"
    },
    "id": "3830860",
    "neo_reference_id": "3830860",
    "name": "(2018 RV27)",
    "designation": "2018 RV27",
    "nasa_jpl_url": "http://ssd.jpl.nasa.gov/sbdb.cgi?sstr=3830860",
    "absolute_magnitude_h": 28.1,
    "estimated_diameter": {
        "kilometers": {
            "estimated_diameter_min": 0.0063760979,
            "estimated_diameter_max": 0.0142573883
        },
        "meters": {
            "estimated_diameter_min": 6.3760978988,
            "estimated_diameter_max": 14.2573883328
        },
        "miles": {
            "estimated_diameter_min": 0.0039619223,
            "estimated_diameter_max": 0.0088591276
        },
        "feet": {
            "estimated_diameter_min": 20.9189570301,
            "estimated_diameter_max": 46.7762099378
        }
    },
    "is_potentially_hazardous_asteroid": false,
    "close_approach_data": [
        {
            "close_approach_date": "1901-01-04",
            "close_approach_date_full": "1901-Jan-04 09:17",
            "epoch_date_close_approach": -2177160180000,
            "relative_velocity": {
                "kilometers_per_second": "17.3183732221",
                "kilometers_per_hour": "62346.1435996183",
                "miles_per_hour": "38739.4690605517"
            },
            "miss_distance": {
                "astronomical": "0.2297124956",
                "lunar": "89.3581607884",
                "kilometers": "34364500.054144372",
                "miles": "21353110.1767694536"
            },
            "orbiting_body": "Earth"
        },
        {
            "close_approach_date": "2018-09-09",
            "close_approach_date_full": "2018-Sep-09 10:48",
            "epoch_date_close_approach": 1536490080000,
            "relative_velocity": {
                "kilometers_per_second": "10.9300263105",
                "kilometers_per_hour": "39348.0947178716",
                "miles_per_hour": "24449.375854002"
            },
            "miss_distance": {
                "astronomical": "0.0055059812",
                "lunar": "2.1418266868",
                "kilometers": "823683.059780044",
                "miles": "511812.9202668472"
            },
            "orbiting_body": "Earth"
        },
        {
            "close_approach_date": "2018-09-09",
            "close_approach_date_full": "2018-Sep-09 17:09",
            "epoch_date_close_approach": 1536512940000,
            "relative_velocity": {
                "kilometers_per_second": "11.3298355222",
                "kilometers_per_hour": "40787.4078799207",
                "miles_per_hour": "25343.7090796096"
            },
            "miss_distance": {
                "astronomical": "0.0064277879",
                "lunar": "2.5004094931",
                "kilometers": "961583.378651773",
                "miles": "597500.2050415474"
            },
            "orbiting_body": "Moon"
        }
    ],
    "orbital_data": {
        "orbit_id": "1",
        "orbit_determination_date": "2018-09-21 07:13:03",
        "first_observation_date": "2018-09-07",
        "last_observation_date": "2018-09-09",
        "data_arc_in_days": 2,
        "observations_used": 12,
        "orbit_uncertainty": "8",
        "minimum_orbit_intersection": ".000146316",
        "jupiter_tisserand_invariant": "4.013",
        "epoch_osculation": "2458369.5",
        "eccentricity": ".4915270978882348",
        "semi_major_axis": "1.727652308410645",
        "inclination": "3.566943509093262",
        "ascending_node_longitude": "347.0328050690774",
        "orbital_period": "829.436120175381",
        "perihelion_distance": ".8784643830976508",
        "perihelion_argument": "52.37283442339112",
        "aphelion_distance": "2.576840233723638",
        "perihelion_time": "2458410.603093356612",
        "mean_anomaly": "342.1600322816282",
        "mean_motion": ".4340298080144851",
        "equinox": "J2000",
        "orbit_class": {
            "orbit_class_type": "APO",
            "orbit_class_description": "Near-Earth asteroid orbits which cross the Earth’s orbit similar to that of 1862 Apollo",
            "orbit_class_range": "a (semi-major axis) > 1.0 AU; q (perihelion) < 1.017 AU"
        }
    },
    "is_sentry_object": false
}